CUPID                   
1 49264U 21088E   26068.66993977  .00009454  00000+0  38662-3 0  9991
2 49264  97.3985 131.0756 0013746  59.9938 300.2662 15.24473777245013
STARLINK-31797          
1 59634U 24082D   26068.56394912 -.00000453  00000+0 -69527-5 0  9991
2 59634  43.0006 140.4405 0001214 261.4726  98.5988 15.27570618104831
